ONEWEB-0658             
1 55819U 23029Z   26104.07885515 -.00000215  00000+0 -56930-3 0  9991
2 55819  87.9176 317.7302 0002062  76.6583 283.4779 13.19725520150467
ONEWEB-0660             
1 55820U 23029AA  26104.26383728 -.00000146  00000+0 -42941-3 0  9993
2 55820  87.8932 302.4554 0002079  91.1585 268.9783 13.14503236151007
ONEWEB-0661             
1 55821U 23029AB  26104.07037561  .00000160  00000+0  39735-3 0  9995
2 55821  87.8921 302.5465 0002012  94.6810 265.4549 13.14502176150962
ONEWEB-0662             
1 55822U 23029AC  26103.57243090 -.00000203  00000+0 -58141-3 0  9998
2 55822  87.8922 302.6531 0002071  90.8852 269.2515 13.14501806150940
ONEWEB-0663             
1 55823U 23029AD  26104.22823339 -.00000162  00000+0 -42992-3 0  9993
2 55823  87.9143 287.2690 0001871  87.4967 272.6381 13.20866744152704
ONEWEB-0664             
1 55824U 23029AE  26104.25272371 -.00000003  00000+0 -38944-4 0  9998
2 55824  87.9127 287.2525 0002057 103.9367 256.1996 13.20768972152702
ONEWEB-0665             
1 55825U 23029AF  26104.06719650  .00000299  00000+0  77231-3 0  9990
2 55825  87.8924 302.5279 0002079  88.6166 271.5202 13.14501058150986
ONEWEB-0666             
1 55826U 23029AG  26104.24640617  .00000048  00000+0  85927-4 0  9991
2 55826  87.9129 287.2433 0001042  85.9950 274.1303 13.20773065152716
ONEWEB-0667             
1 55827U 23029AH  26104.24010234  .00000083  00000+0  17260-3 0  9991
2 55827  87.9147 287.1914 0001930  94.1822 265.9532 13.20772985152707
ONEWEB-0669             
1 55828U 23029AJ  26104.23536437  .00000056  00000+0  10631-3 0  9994
2 55828  87.9126 287.2111 0001596 112.8515 247.2787 13.20772710152701
ONEWEB-0670             
1 55829U 23029AK  26104.27334683 -.00000176  00000+0 -50943-3 0  9993
2 55829  87.8923 302.5049 0002035  98.1689 261.9672 13.14502014151036
ONEWEB-0671             
1 55830U 23029AL  26104.14993501  .00000117  00000+0  26021-3 0  9994
2 55830  87.9169 317.7471 0001941  87.4856 272.6499 13.19723928150455
ONEWEB-0672             
1 55831U 23029AM  26104.23062264  .00000115  00000+0  25095-3 0  9996
2 55831  87.9135 287.2023 0001431  95.6525 264.4772 13.20769556152703
ONEWEB-0673             
1 55832U 23029AN  26104.12702926  .00000083  00000+0  17442-3 0  9992
2 55832  87.9179 317.7375 0001874  88.4884 271.6463 13.19725026150459
ONEWEB-0674             
1 55833U 23029AP  26104.24163372  .00000193  00000+0  48651-3 0  9990
2 55833  87.8920 302.4886 0001972 100.0892 260.0461 13.14501475151018
ONEWEB-0675             
1 55834U 23029AQ  26104.14203392  .00000082  00000+0  17172-3 0  9998
2 55834  87.9169 317.7502 0001544  77.2764 282.8541 13.19727853150472
