[{"OBJECT_NAME":"ONEWEB-0658","OBJECT_ID":"2023-029Z","EPOCH":"2026-04-14T01:53:33.084960","MEAN_MOTION":13.1972552,"ECCENTRICITY":0.0002062,"INCLINATION":87.9176,"RA_OF_ASC_NODE":317.7302,"ARG_OF_PERICENTER":76.6583,"MEAN_ANOMALY":283.4779,"EPHEMERIS_TYPE":0,"CLASSIFICATION_TYPE":"U","NORAD_CAT_ID":55819,"ELEMENT_SET_NO":999,"REV_AT_EPOCH":15046,"BSTAR":-0.0005693,"MEAN_MOTION_DOT":-2.15e-06,"MEAN_MOTION_DDOT":0.0},{"OBJECT_NAME":"ONEWEB-0660","OBJECT_ID":"2023-029AA","EPOCH":"2026-04-14T06:19:55.540992","MEAN_MOTION":13.14503236,"ECCENTRICITY":0.0002079,"INCLINATION":87.8932,"RA_OF_ASC_NODE":302.4554,"ARG_OF_PERICENTER":91.1585,"MEAN_ANOMALY":268.9783,"EPHEMERIS_TYPE":0,"CLASSIFICATION_TYPE":"U","NORAD_CAT_ID":55820,"ELEMENT_SET_NO":999,"REV_AT_EPOCH":15100,"BSTAR":-0.00042941,"MEAN_MOTION_DOT":-1.46e-06,"MEAN_MOTION_DDOT":0.0},{"OBJECT_NAME":"ONEWEB-0661","OBJECT_ID":"2023-029AB","EPOCH":"2026-04-14T01:41:20.452704","MEAN_MOTION":13.14502176,"ECCENTRICITY":0.0002012,"INCLINATION":87.8921,"RA_OF_ASC_NODE":302.5465,"ARG_OF_PERICENTER":94.681,"MEAN_ANOMALY":265.4549,"EPHEMERIS_TYPE":0,"CLASSIFICATION_TYPE":"U","NORAD_CAT_ID":55821,"ELEMENT_SET_NO":999,"REV_AT_EPOCH":15096,"BSTAR":0.00039735,"MEAN_MOTION_DOT":1.6e-06,"MEAN_MOTION_DDOT":0.0},{"OBJECT_NAME":"ONEWEB-0662","OBJECT_ID":"2023-029AC","EPOCH":"2026-04-13T13:44:18.029760","MEAN_MOTION":13.14501806,"ECCENTRICITY":0.0002071,"INCLINATION":87.8922,"RA_OF_ASC_NODE":302.6531,"ARG_OF_PERICENTER":90.8852,"MEAN_ANOMALY":269.2515,"EPHEMERIS_TYPE":0,"CLASSIFICATION_TYPE":"U","NORAD_CAT_ID":55822,"ELEMENT_SET_NO":999,"REV_AT_EPOCH":15094,"BSTAR":-0.00058141,"MEAN_MOTION_DOT":-2.03e-06,"MEAN_MOTION_DDOT":0.0},{"OBJECT_NAME":"ONEWEB-0663","OBJECT_ID":"2023-029AD","EPOCH":"2026-04-14T05:28:39.364896","MEAN_MOTION":13.20866744,"ECCENTRICITY":0.0001871,"INCLINATION":87.9143,"RA_OF_ASC_NODE":287.269,"ARG_OF_PERICENTER":87.4967,"MEAN_ANOMALY":272.6381,"EPHEMERIS_TYPE":0,"CLASSIFICATION_TYPE":"U","NORAD_CAT_ID":55823,"ELEMENT_SET_NO":999,"REV_AT_EPOCH":15270,"BSTAR":-0.00042992000000000003,"MEAN_MOTION_DOT":-1.62e-06,"MEAN_MOTION_DDOT":0.0},{"OBJECT_NAME":"ONEWEB-0664","OBJECT_ID":"2023-029AE","EPOCH":"2026-04-14T06:03:55.328544","MEAN_MOTION":13.20768972,"ECCENTRICITY":0.0002057,"INCLINATION":87.9127,"RA_OF_ASC_NODE":287.2525,"ARG_OF_PERICENTER":103.9367,"MEAN_ANOMALY":256.1996,"EPHEMERIS_TYPE":0,"CLASSIFICATION_TYPE":"U","NORAD_CAT_ID":55824,"ELEMENT_SET_NO":999,"REV_AT_EPOCH":15270,"BSTAR":-3.8944000000000005e-05,"MEAN_MOTION_DOT":-3e-08,"MEAN_MOTION_DDOT":0.0},{"OBJECT_NAME":"ONEWEB-0665","OBJECT_ID":"2023-029AF","EPOCH":"2026-04-14T01:36:45.777600","MEAN_MOTION":13.14501058,"ECCENTRICITY":0.0002079,"INCLINATION":87.8924,"RA_OF_ASC_NODE":302.5279,"ARG_OF_PERICENTER":88.6166,"MEAN_ANOMALY":271.5202,"EPHEMERIS_TYPE":0,"CLASSIFICATION_TYPE":"U","NORAD_CAT_ID":55825,"ELEMENT_SET_NO":999,"REV_AT_EPOCH":15098,"BSTAR":0.0007723100000000001,"MEAN_MOTION_DOT":2.99e-06,"MEAN_MOTION_DDOT":0.0},{"OBJECT_NAME":"ONEWEB-0666","OBJECT_ID":"2023-029AG","EPOCH":"2026-04-14T05:54:49.493088","MEAN_MOTION":13.20773065,"ECCENTRICITY":0.0001042,"INCLINATION":87.9129,"RA_OF_ASC_NODE":287.2433,"ARG_OF_PERICENTER":85.995,"MEAN_ANOMALY":274.1303,"EPHEMERIS_TYPE":0,"CLASSIFICATION_TYPE":"U","NORAD_CAT_ID":55826,"ELEMENT_SET_NO":999,"REV_AT_EPOCH":15271,"BSTAR":8.5927e-05,"MEAN_MOTION_DOT":4.8e-07,"MEAN_MOTION_DDOT":0.0},{"OBJECT_NAME":"ONEWEB-0667","OBJECT_ID":"2023-029AH","EPOCH":"2026-04-14T05:45:44.842176","MEAN_MOTION":13.20772985,"ECCENTRICITY":0.000193,"INCLINATION":87.9147,"RA_OF_ASC_NODE":287.1914,"ARG_OF_PERICENTER":94.1822,"MEAN_ANOMALY":265.9532,"EPHEMERIS_TYPE":0,"CLASSIFICATION_TYPE":"U","NORAD_CAT_ID":55827,"ELEMENT_SET_NO":999,"REV_AT_EPOCH":15270,"BSTAR":0.0001726,"MEAN_MOTION_DOT":8.3e-07,"MEAN_MOTION_DDOT":0.0},{"OBJECT_NAME":"ONEWEB-0669","OBJECT_ID":"2023-029AJ","EPOCH":"2026-04-14T05:38:55.481568","MEAN_MOTION":13.2077271,"ECCENTRICITY":0.0001596,"INCLINATION":87.9126,"RA_OF_ASC_NODE":287.2111,"ARG_OF_PERICENTER":112.8515,"MEAN_ANOMALY":247.2787,"EPHEMERIS_TYPE":0,"CLASSIFICATION_TYPE":"U","NORAD_CAT_ID":55828,"ELEMENT_SET_NO":999,"REV_AT_EPOCH":15270,"BSTAR":0.00010631,"MEAN_MOTION_DOT":5.6e-07,"MEAN_MOTION_DDOT":0.0},{"OBJECT_NAME":"ONEWEB-0670","OBJECT_ID":"2023-029AK","EPOCH":"2026-04-14T06:33:37.166112","MEAN_MOTION":13.14502014,"ECCENTRICITY":0.0002035,"INCLINATION":87.8923,"RA_OF_ASC_NODE":302.5049,"ARG_OF_PERICENTER":98.1689,"MEAN_ANOMALY":261.9672,"EPHEMERIS_TYPE":0,"CLASSIFICATION_TYPE":"U","NORAD_CAT_ID":55829,"ELEMENT_SET_NO":999,"REV_AT_EPOCH":15103,"BSTAR":-0.0005094300000000001,"MEAN_MOTION_DOT":-1.76e-06,"MEAN_MOTION_DDOT":0.0},{"OBJECT_NAME":"ONEWEB-0671","OBJECT_ID":"2023-029AL","EPOCH":"2026-04-14T03:35:54.384864","MEAN_MOTION":13.19723928,"ECCENTRICITY":0.0001941,"INCLINATION":87.9169,"RA_OF_ASC_NODE":317.7471,"ARG_OF_PERICENTER":87.4856,"MEAN_ANOMALY":272.6499,"EPHEMERIS_TYPE":0,"CLASSIFICATION_TYPE":"U","NORAD_CAT_ID":55830,"ELEMENT_SET_NO":999,"REV_AT_EPOCH":15045,"BSTAR":0.00026021,"MEAN_MOTION_DOT":1.17e-06,"MEAN_MOTION_DDOT":0.0},{"OBJECT_NAME":"ONEWEB-0672","OBJECT_ID":"2023-029AM","EPOCH":"2026-04-14T05:32:05.796096","MEAN_MOTION":13.20769556,"ECCENTRICITY":0.0001431,"INCLINATION":87.9135,"RA_OF_ASC_NODE":287.2023,"ARG_OF_PERICENTER":95.6525,"MEAN_ANOMALY":264.4772,"EPHEMERIS_TYPE":0,"CLASSIFICATION_TYPE":"U","NORAD_CAT_ID":55831,"ELEMENT_SET_NO":999,"REV_AT_EPOCH":15270,"BSTAR":0.00025095,"MEAN_MOTION_DOT":1.15e-06,"MEAN_MOTION_DDOT":0.0},{"OBJECT_NAME":"ONEWEB-0673","OBJECT_ID":"2023-029AN","EPOCH":"2026-04-14T03:02:55.328064","MEAN_MOTION":13.19725026,"ECCENTRICITY":0.0001874,"INCLINATION":87.9179,"RA_OF_ASC_NODE":317.7375,"ARG_OF_PERICENTER":88.4884,"MEAN_ANOMALY":271.6463,"EPHEMERIS_TYPE":0,"CLASSIFICATION_TYPE":"U","NORAD_CAT_ID":55832,"ELEMENT_SET_NO":999,"REV_AT_EPOCH":15045,"BSTAR":0.00017442,"MEAN_MOTION_DOT":8.3e-07,"MEAN_MOTION_DDOT":0.0},{"OBJECT_NAME":"ONEWEB-0674","OBJECT_ID":"2023-029AP","EPOCH":"2026-04-14T05:47:57.153408","MEAN_MOTION":13.14501475,"ECCENTRICITY":0.0001972,"INCLINATION":87.892,"RA_OF_ASC_NODE":302.4886,"ARG_OF_PERICENTER":100.0892,"MEAN_ANOMALY":260.0461,"EPHEMERIS_TYPE":0,"CLASSIFICATION_TYPE":"U","NORAD_CAT_ID":55833,"ELEMENT_SET_NO":999,"REV_AT_EPOCH":15101,"BSTAR":0.00048651,"MEAN_MOTION_DOT":1.93e-06,"MEAN_MOTION_DDOT":0.0},{"OBJECT_NAME":"ONEWEB-0675","OBJECT_ID":"2023-029AQ","EPOCH":"2026-04-14T03:24:31.730688","MEAN_MOTION":13.19727853,"ECCENTRICITY":0.0001544,"INCLINATION":87.9169,"RA_OF_ASC_NODE":317.7502,"ARG_OF_PERICENTER":77.2764,"MEAN_ANOMALY":282.8541,"EPHEMERIS_TYPE":0,"CLASSIFICATION_TYPE":"U","NORAD_CAT_ID":55834,"ELEMENT_SET_NO":999,"REV_AT_EPOCH":15047,"BSTAR":0.00017172000000000002,"MEAN_MOTION_DOT":8.2e-07,"MEAN_MOTION_DDOT":0.0}]